start=new Date('2023-04-28T00:00:00.000Z').valueOf();
sats=[{"REV_AT_EPOCH":"15121","MEAN_ANOMALY":"282.6868","OBJECT_TYPE":"PAYLOAD","LAUNCH_DATE":"2020-08-07","CLASSIFICATION_TYPE":"U","SITE":"AFETR","INCLINATION":"53.0539","TIME_SYSTEM":"UTC","SEMIMAJOR_AXIS":"6925.422","RA_OF_ASC_NODE":"137.4205","DECAY_DATE":null,"GP_ID":"230834026","MEAN_MOTION_DDOT":"0.0000000000000","RCS_SIZE":"LARGE","PERIAPSIS":"546.236","ELEMENT_SET_NO":"999","BSTAR":"0.00023268000000","ECCENTRICITY":"0.00015170","NORAD_CAT_ID":"46051","EPHEMERIS_TYPE":"0","MEAN_ELEMENT_THEORY":"SGP4","COUNTRY_CODE":"US","MEAN_MOTION_DOT":"0.00003184","FILE":"3894751","OBJECT_NAME":"STARLINK-1540","TLE_LINE2":"2 46051  53.0539 137.4205 0001517  77.4291 282.6868 15.06376154151217","REF_FRAME":"TEME","TLE_LINE1":"1 46051U 20055AA  23117.54710976  .00003184  00000-0  23268-3 0  9991","OBJECT_ID":"2020-055AA","APOAPSIS":"548.337","ARG_OF_PERICENTER":"77.4291","PERIOD":"95.594","EPOCH":"2023-04-27T13:07:50.283264","CENTER_NAME":"EARTH","MEAN_MOTION":"15.06376154"},{"TLE_LINE2":"2 46052  53.0531 137.4845 0001456  74.7881 285.3269 15.06384380150682","REF_FRAME":"TEME","TLE_LINE1":"1 46052U 20055AB  23117.53238600  .00010489  00000-0  72232-3 0  9991","OBJECT_ID":"2020-055AB","APOAPSIS":"548.270","PERIOD":"95.593","ARG_OF_PERICENTER":"74.7881","EPOCH":"2023-04-27T12:46:38.150400","CENTER_NAME":"EARTH","MEAN_MOTION":"15.06384380","BSTAR":"0.00072232000000","ELEMENT_SET_NO":"999","NORAD_CAT_ID":"46052","ECCENTRICITY":"0.00014560","EPHEMERIS_TYPE":"0","MEAN_ELEMENT_THEORY":"SGP4","COUNTRY_CODE":"US","MEAN_MOTION_DOT":"0.00010489","FILE":"3894838","OBJECT_NAME":"STARLINK-1541","SEMIMAJOR_AXIS":"6925.396","RA_OF_ASC_NODE":"137.4845","DECAY_DATE":null,"GP_ID":"230842585","MEAN_MOTION_DDOT":"0.0000000000000","RCS_SIZE":"LARGE","PERIAPSIS":"546.253","REV_AT_EPOCH":"15068","MEAN_ANOMALY":"285.3269","OBJECT_TYPE":"PAYLOAD","LAUNCH_DATE":"2020-08-07","CLASSIFICATION_TYPE":"U","SITE":"AFETR","TIME_SYSTEM":"UTC","INCLINATION":"53.0531"},{"OBJECT_NAME":"STARLINK-1543","MEAN_MOTION_DOT":"0.00010333","FILE":"3894751","COUNTRY_CODE":"US","MEAN_ELEMENT_THEORY":"SGP4","EPHEMERIS_TYPE":"0","ELEMENT_SET_NO":"999","BSTAR":"0.00071180000000","NORAD_CAT_ID":"46053","ECCENTRICITY":"0.00017300","MEAN_MOTION":"15.06388590","CENTER_NAME":"EARTH","PERIOD":"95.593","EPOCH":"2023-04-27T12:51:55.922688","ARG_OF_PERICENTER":"74.1897","APOAPSIS":"548.447","OBJECT_ID":"2020-055AC","TLE_LINE1":"1 46053U 20055AC  23117.53606392  .00010333  00000-0  71180-3 0  9998","TLE_LINE2":"2 46053  53.0525 137.4702 0001730  74.1897 285.9283 15.06388590151202","REF_FRAME":"TEME","TIME_SYSTEM":"UTC","INCLINATION":"53.0525","CLASSIFICATION_TYPE":"U","SITE":"AFETR","LAUNCH_DATE":"2020-08-07","OBJECT_TYPE":"PAYLOAD","MEAN_ANOMALY":"285.9283","REV_AT_EPOCH":"15120","RCS_SIZE":"LARGE","PERIAPSIS":"546.050","MEAN_MOTION_DDOT":"0.0000000000000","DECAY_DATE":null,"GP_ID":"230833527","RA_OF_ASC_NODE":"137.4702","SEMIMAJOR_AXIS":"6925.384"},{"DECAY_DATE":null,"GP_ID":"230833778","MEAN_MOTION_DDOT":"0.0000000000000","RCS_SIZE":"LARGE","PERIAPSIS":"546.043","SEMIMAJOR_AXIS":"6925.381","RA_OF_ASC_NODE":"137.4372","CLASSIFICATION_TYPE":"U","SITE":"AFETR","INCLINATION":"53.0527","TIME_SYSTEM":"UTC","REV_AT_EPOCH":"15120","MEAN_ANOMALY":"283.4667","OBJECT_TYPE":"PAYLOAD","LAUNCH_DATE":"2020-08-07","APOAPSIS":"548.449","PERIOD":"95.593","ARG_OF_PERICENTER":"76.6516","EPOCH":"2023-04-27T13:02:32.786592","CENTER_NAME":"EARTH","MEAN_MOTION":"15.06389273","TLE_LINE2":"2 46054  53.0527 137.4372 0001737  76.6516 283.4667 15.06389273151208","REF_FRAME":"TEME","TLE_LINE1":"1 46054U 20055AD  23117.54343503  .00009740  00000-0  67205-3 0  9995","OBJECT_ID":"2020-055AD","COUNTRY_CODE":"US","MEAN_MOTION_DOT":"0.00009740","FILE":"3894751","OBJECT_NAME":"STARLINK-1548","ELEMENT_SET_NO":"999","BSTAR":"0.00067205000000","ECCENTRICITY":"0.00017370","NORAD_CAT_ID":"46054","EPHEMERIS_TYPE":"0","MEAN_ELEMENT_THEORY":"SGP4"},{"DECAY_DATE":null,"GP_ID":"230834525","MEAN_MOTION_DDOT":"0.0000000000000","RCS_SIZE":"LARGE","PERIAPSIS":"546.145","SEMIMAJOR_AXIS":"6925.376","RA_OF_ASC_NODE":"137.5053","CLASSIFICATION_TYPE":"U","SITE":"AFETR","INCLINATION":"53.0531","TIME_SYSTEM":"UTC","REV_AT_EPOCH":"15120","MEAN_ANOMALY":"282.3987","OBJECT_TYPE":"PAYLOAD","LAUNCH_DATE":"2020-08-07","APOAPSIS":"548.338","EPOCH":"2023-04-27T12:41:18.501504","PERIOD":"95.593","ARG_OF_PERICENTER":"77.7179","CENTER_NAME":"EARTH","MEAN_MOTION":"15.06390900","TLE_LINE2":"2 46055  53.0531 137.5053 0001583  77.7179 282.3987 15.06390900151209","REF_FRAME":"TEME","TLE_LINE1":"1 46055U 20055AE  23117.52868636  .00010291  00000-0  70895-3 0  9995","OBJECT_ID":"2020-055AE","COUNTRY_CODE":"US","MEAN_MOTION_DOT":"0.00010291","FILE":"3894751","OBJECT_NAME":"STARLINK-1554","ELEMENT_SET_NO":"999","BSTAR":"0.00070895000000","ECCENTRICITY":"0.00015830","NORAD_CAT_ID":"46055","EPHEMERIS_TYPE":"0","MEAN_ELEMENT_THEORY":"SGP4"},{"MEAN_ELEMENT_THEORY":"SGP4","EPHEMERIS_TYPE":"0","ELEMENT_SET_NO":"999","BSTAR":"0.01404700000000","ECCENTRICITY":"0.00011930","NORAD_CAT_ID":"46056","OBJECT_NAME":"STARLINK-1561","MEAN_MOTION_DOT":"0.01152198","FILE":"3894711","COUNTRY_CODE":"US","OBJECT_ID":"2020-055AF","TLE_LINE1":"1 46056U 20055AF  23117.66667824  .01152198  00000-0  14047-1 0  9996","TLE_LINE2":"2 46056  53.0469 133.0730 0001193  87.2372 326.5318 15.57555600150733","REF_FRAME":"TEME","MEAN_MOTION":"15.57555600","CENTER_NAME":"EARTH","ARG_OF_PERICENTER":"87.2372","PERIOD":"92.453","EPOCH":"2023-04-27T16:00:00.999936","APOAPSIS":"395.544","LAUNCH_DATE":"2020-08-07","OBJECT_TYPE":"PAYLOAD","REV_AT_EPOCH":"15073","MEAN_ANOMALY":"326.5318","INCLINATION":"53.0469","TIME_SYSTEM":"UTC","CLASSIFICATION_TYPE":"U","SITE":"AFETR","RA_OF_ASC_NODE":"133.0730","SEMIMAJOR_AXIS":"6772.871","RCS_SIZE":"LARGE","PERIAPSIS":"393.928","MEAN_MOTION_DDOT":"0.0000000000000","DECAY_DATE":null,"GP_ID":"230812975"},{"ELEMENT_SET_NO":"999","BSTAR":"0.00034460000000","ECCENTRICITY":"0.00016830","NORAD_CAT_ID":"46058","EPHEMERIS_TYPE":"0","MEAN_ELEMENT_THEORY":"SGP4","COUNTRY_CODE":"US","MEAN_MOTION_DOT":"0.00004851","FILE":"3894751","OBJECT_NAME":"STARLINK-1564","TLE_LINE2":"2 46058  53.0529 137.9523 0001683  91.9020 268.2162 15.06370218151184","REF_FRAME":"TEME","TLE_LINE1":"1 46058U 20055AH  23117.42918306  .00004851  00000-0  34460-3 0  9990","OBJECT_ID":"2020-055AH","APOAPSIS":"548.470","PERIOD":"95.594","EPOCH":"2023-04-27T10:18:01.416384","ARG_OF_PERICENTER":"91.9020","CENTER_NAME":"EARTH","MEAN_MOTION":"15.06370218","REV_AT_EPOCH":"15118","MEAN_ANOMALY":"268.2162","OBJECT_TYPE":"PAYLOAD","LAUNCH_DATE":"2020-08-07","CLASSIFICATION_TYPE":"U","SITE":"AFETR","INCLINATION":"53.0529","TIME_SYSTEM":"UTC","SEMIMAJOR_AXIS":"6925.440","RA_OF_ASC_NODE":"137.9523","DECAY_DATE":null,"GP_ID":"230833028","MEAN_MOTION_DDOT":"0.0000000000000","RCS_SIZE":"LARGE","PERIAPSIS":"546.139"},{"LAUNCH_DATE":"2020-08-07","OBJECT_TYPE":"PAYLOAD","REV_AT_EPOCH":"15067","MEAN_ANOMALY":"285.7091","INCLINATION":"53.0525","TIME_SYSTEM":"UTC","CLASSIFICATION_TYPE":"U","SITE":"AFETR","RA_OF_ASC_NODE":"137.3187","SEMIMAJOR_AXIS":"6925.282","RCS_SIZE":"LARGE","PERIAPSIS":"546.154","MEAN_MOTION_DDOT":"0.0000000000000","DECAY_DATE":null,"GP_ID":"230813214","MEAN_ELEMENT_THEORY":"SGP4","EPHEMERIS_TYPE":"0","ELEMENT_SET_NO":"999","BSTAR":"0.00084231000000","NORAD_CAT_ID":"46059","ECCENTRICITY":"0.00014340","OBJECT_NAME":"STARLINK-1570","MEAN_MOTION_DOT":"0.00012294","FILE":"3894716","COUNTRY_CODE":"US","OBJECT_ID":"2020-055AJ","TLE_LINE1":"1 46059U 20055AJ  23117.56920446  .00012294  00000-0  84231-3 0  9995","TLE_LINE2":"2 46059  53.0525 137.3187 0001434  74.4056 285.7091 15.06421608150678","REF_FRAME":"TEME","MEAN_MOTION":"15.06421608","CENTER_NAME":"EARTH","EPOCH":"2023-04-27T13:39:39.265344","PERIOD":"95.591","ARG_OF_PERICENTER":"74.4056","APOAPSIS":"548.140"},{"SEMIMAJOR_AXIS":"6925.409","RA_OF_ASC_NODE":"137.6387","DECAY_DATE":null,"GP_ID":"230834027","RCS_SIZE":"LARGE","PERIAPSIS":"546.119","MEAN_MOTION_DDOT":"0.0000000000000","OBJECT_TYPE":"PAYLOAD","REV_AT_EPOCH":"15116","MEAN_ANOMALY":"288.8101","LAUNCH_DATE":"2020-08-07","CLASSIFICATION_TYPE":"U","SITE":"AFETR","INCLINATION":"53.0531","TIME_SYSTEM":"UTC","TLE_LINE1":"1 46060U 20055AK  23117.49921287  .00008438  00000-0  58501-3 0  9999","TLE_LINE2":"2 46060  53.0531 137.6387 0001668  71.3069 288.8101 15.06380194151166","REF_FRAME":"TEME","OBJECT_ID":"2020-055AK","PERIOD":"95.593","EPOCH":"2023-04-27T11:58:51.991968","ARG_OF_PERICENTER":"71.3069","APOAPSIS":"548.429","MEAN_MOTION":"15.06380194","CENTER_NAME":"EARTH","EPHEMERIS_TYPE":"0","BSTAR":"0.00058501000000","ELEMENT_SET_NO":"999","NORAD_CAT_ID":"46060","ECCENTRICITY":"0.00016680","MEAN_ELEMENT_THEORY":"SGP4","MEAN_MOTION_DOT":"0.00008438","FILE":"3894751","COUNTRY_CODE":"US","OBJECT_NAME":"STARLINK-1572"},{"DECAY_DATE":null,"GP_ID":"230832778","RCS_SIZE":"LARGE","PERIAPSIS":"546.148","MEAN_MOTION_DDOT":"0.0000000000000","SEMIMAJOR_AXIS":"6925.404","RA_OF_ASC_NODE":"137.6706","CLASSIFICATION_TYPE":"U","SITE":"AFETR","INCLINATION":"53.0526","TIME_SYSTEM":"UTC","OBJECT_TYPE":"PAYLOAD","REV_AT_EPOCH":"15119","MEAN_ANOMALY":"280.9989","LAUNCH_DATE":"2020-08-07","PERIOD":"95.593","EPOCH":"2023-04-27T11:48:14.936256","ARG_OF_PERICENTER":"79.1182","APOAPSIS":"548.391","MEAN_MOTION":"15.06381768","CENTER_NAME":"EARTH","TLE_LINE1":"1 46061U 20055AL  23117.49183954  .00009246  00000-0  63910-3 0  9999","TLE_LINE2":"2 46061  53.0526 137.6706 0001619  79.1182 280.9989 15.06381768151192","REF_FRAME":"TEME","OBJECT_ID":"2020-055AL","MEAN_MOTION_DOT":"0.00009246","FILE":"3894751","COUNTRY_CODE":"US","OBJECT_NAME":"STARLINK-1573","EPHEMERIS_TYPE":"0","BSTAR":"0.00063910000000","ELEMENT_SET_NO":"999","NORAD_CAT_ID":"46061","ECCENTRICITY":"0.00016190","MEAN_ELEMENT_THEORY":"SGP4"}];
